0 COSMOS 1570
1 15031U 84056A   13282.03686300  .00000130  00000-0  58662-4 0  5974
2 15031 074.0675 084.6450 0013553 235.9197 263.1766 14.31380842531421
0 COSMOS 1570
1 15031U 84056A   13283.48201242  .00000118  00000-0  54291-4 0  5983
2 15031 074.0676 082.0168 0013477 233.0567 149.8637 14.31381783531630
0 COSMOS 1570
1 15031U 84056A   13286.41884455  .00000082  00000-0  40743-4 0  6003
2 15031 074.0683 076.6755 0013366 227.2394 163.0257 14.31382401532050
0 COSMOS 1570
1 15031U 84056A   13287.54372082  .00000085  00000-0  41779-4 0  6010
2 15031 074.0686 074.6298 0013356 225.0822 199.3171 14.31382859532216
0 COSMOS 1570
1 15031U 84056A   13288.80963707  .00000136  00000-0  60920-4 0  6027
2 15031 074.0689 072.3277 0013340 222.7493 242.2725 14.31383187532399
0 COSMOS 1570
1 15031U 84056A   13289.85873647  .00000140  00000-0  62606-4 0  6035
2 15031 074.0691 070.4199 0013289 220.6281 248.2123 14.31383442532547
0 COSMOS 1570
1 15031U 84056A   13291.52841931  .00000155  00000-0  67956-4 0  6043
2 15031 074.0693 067.3837 0013232 217.3854 211.8455 14.31383981532788
0 COSMOS 1570
1 15031U 84056A   13292.79376008  .00000195  00000-0  83290-4 0  6055
2 15031 074.0694 065.0828 0013178 214.8400 252.0536 14.31384392532966
0 COSMOS 1570
1 15031U 84056A   13293.84300316  .00000195  00000-0  83375-4 0  6066
2 15031 074.0694 063.1748 0013153 212.8339 258.6232 14.31384813533119
0 COSMOS 1570
1 15031U 84056A   13295.44038616  .00000179  00000-0  77153-4 0  6075
2 15031 074.0695 060.2699 0013089 209.5833 209.8616 14.31385680533345
